[{"OBJECT_NAME":"BB 1","OBJECT_ID":"2023-050K","EPOCH":"2026-03-09T20:29:58.628256","MEAN_MOTION":13.82403418,"ECCENTRICITY":0.00164346,"INCLINATION":81.0052,"RA_OF_ASC_NODE":175.5172,"ARG_OF_PERICENTER":205.3476,"MEAN_ANOMALY":154.6874,"EPHEMERIS_TYPE":0,"CLASSIFICATION_TYPE":"U","NORAD_CAT_ID":56171,"ELEMENT_SET_NO":999,"REV_AT_EPOCH":14781,"BSTAR":0.00021831819,"MEAN_MOTION_DOT":2.47e-6,"MEAN_MOTION_DDOT":0},{"OBJECT_NAME":"CZ-6A DEB","OBJECT_ID":"2022-151KN","EPOCH":"2026-03-09T22:01:04.086624","MEAN_MOTION":13.95743122,"ECCENTRICITY":0.01207862,"INCLINATION":98.8543,"RA_OF_ASC_NODE":36.8773,"ARG_OF_PERICENTER":349.3813,"MEAN_ANOMALY":10.4802,"EPHEMERIS_TYPE":0,"CLASSIFICATION_TYPE":"U","NORAD_CAT_ID":54538,"ELEMENT_SET_NO":999,"REV_AT_EPOCH":16900,"BSTAR":0.00044763559,"MEAN_MOTION_DOT":6.06e-6,"MEAN_MOTION_DDOT":0}]
